NORAD_CAT_ID,OBJECT_NAME,OBJECT_TYPE,EPOCH,MEAN_MOTION,ECCENTRICITY,INCLINATION,RA_OF_ASC_NODE,ARG_OF_PERICENTER,MEAN_ANOMALY,BSTAR,MEAN_MOTION_DOT,MEAN_MOTION_DDOT,TLE_LINE0,TLE_LINE1,TLE_LINE2,SEMIMAJOR_AXIS,PERIOD,APOGEE,PERIGEE,DECAYED
51744.0,STARLINK-3452,PAYLOAD,2022-07-17 22:00:00,15.08827077,0.0002041,53.2163,173.1783,52.1297,272.793,0.0018564,0.0002937,0.0,0 STARLINK-3452,1 51744U 22016AG  22198.91667824  .00029370  00000-0  18564-2 0  9994,2 51744  53.2163 173.1783 0002041  52.1297 272.7930 15.08827077  1305,6917.92,95.438,541.197,538.373,0.0
51744.0,STARLINK-3452,PAYLOAD,2022-07-18 06:00:00,15.08837391,0.0002257,53.2165,171.6853,47.3153,289.207,0.00060474,9.349e-05,0.0,0 STARLINK-3452,1 51744U 22016AG  22199.25001157  .00009349  00000-0  60474-3 0  9995,2 51744  53.2165 171.6853 0002257  47.3153 289.2070 15.08837391 23777,6917.888000000001,95.438,541.315,538.192,0.0
51744.0,STARLINK-3452,PAYLOAD,2022-07-18 14:00:01,15.08876216,0.0002142,53.2163,170.1865,47.1303,300.9818,-0.0046095,-0.00072981,0.0,0 STARLINK-3452,1 51744U 22016AG  22199.58334491 -.00072981  00000-0 -46095-2 0  9997,2 51744  53.2163 170.1865 0002142  47.1303 300.9818 15.08876216  1305,6917.77,95.435,541.116,538.153,0.0
51744.0,STARLINK-3452,PAYLOAD,2022-07-18 22:00:00,15.08822666,0.0002048,53.2167,168.6893,51.7001,308.0211,0.001385,0.00021813,0.0,0 STARLINK-3452,1 51744U 22016AG  22199.91667824  .00021813  00000-0  13850-2 0  9992,2 51744  53.2167 168.6893 0002048  51.7001 308.0211 15.08822666  1309,6917.933000000001,95.439,541.215,538.382,0.0
51744.0,STARLINK-3452,PAYLOAD,2022-07-19 06:00:00,15.08838185,0.0002379,53.2174,167.2013,46.4776,324.7862,-0.00015269,-2.718e-05,0.0,0 STARLINK-3452,1 51744U 22016AG  22200.25001157 -.00002718  00000-0 -15269-3 0  9995,2 51744  53.2174 167.2013 0002379  46.4776 324.7862 15.08838185 23925,6917.886,95.438,541.3969999999998,538.105,0.0
51744.0,STARLINK-3452,PAYLOAD,2022-07-19 14:00:01,15.08857007,0.0002172,53.2167,165.6974,48.1027,334.7703,-0.0015783,-0.00025332,0.0,0 STARLINK-3452,1 51744U 22016AG  22200.58334491 -.00025332  00000-0 -15783-2 0  9998,2 51744  53.2167 165.6974 0002172  48.1027 334.7703 15.08857007  1301,6917.828,95.436,541.196,538.191,0.0
51744.0,STARLINK-3452,PAYLOAD,2022-07-19 22:00:00,15.08823903,0.0002074,53.2171,164.2047,47.6352,346.8235,0.0011901,0.00018695,0.0,0 STARLINK-3452,1 51744U 22016AG  22200.91667824  .00018695  00000-0  11901-2 0  9994,2 51744  53.2171 164.2047 0002074  47.6352 346.8235 15.08823903  1300,6917.93,95.439,541.229,538.36,0.0
51744.0,STARLINK-3452,PAYLOAD,2022-07-20 06:00:00,15.08825186,0.0002198,53.2169,162.7058,46.5576,359.5286,0.0015414,0.00024319,0.0,0 STARLINK-3452,1 51744U 22016AG  22201.25001157  .00024319  00000-0  15414-2 0  9996,2 51744  53.2169 162.7058 0002198  46.5576 359.5286 15.08825186 24087,6917.926,95.438,541.311,538.27,0.0
51744.0,STARLINK-3452,PAYLOAD,2022-07-20 14:00:01,15.08866407,0.0002053,53.2168,161.2083,47.1193,10.5543,-0.0039843,-0.0006319,0.0,0 STARLINK-3452,1 51744U 22016AG  22201.58334491 -.00063190  00000-0 -39843-2 0  9996,2 51744  53.2168 161.2083 0002053  47.1193  10.5543 15.08866407  1301,6917.8,95.436,541.085,538.244,0.0
51744.0,STARLINK-3452,PAYLOAD,2022-07-20 22:00:01,15.08827227,0.0001956999999999,53.217,159.7114,50.4218,18.906,0.00091676,0.00014327,0.0,0 STARLINK-3452,1 51744U 22016AG  22201.91668981  .00014327  00000-0  91676-3 0  9996,2 51744  53.2170 159.7114 0001957  50.4218  18.9060 15.08827227 24182,6917.919,95.438,541.138,538.431,0.0
51744.0,STARLINK-3452,PAYLOAD,2022-07-21 14:00:01,15.08824738,0.0001935,53.2168,156.7191,46.5041,45.9911,-0.0016918,-0.00027102,0.0,0 STARLINK-3452,1 51744U 22016AG  22202.58335648 -.00027102  00000-0 -16918-2 0  9993,2 51744  53.2168 156.7191 0001935  46.5041  45.9911 15.08824738 24287,6917.927,95.439,541.131,538.453,0.0
51744.0,STARLINK-3452,PAYLOAD,2022-07-21 22:00:00,15.08823806,0.0001889,53.2169,155.2226,50.3776,53.6168,0.00029417,4.395e-05,0.0,0 STARLINK-3452,1 51744U 22016AG  22202.91667824  .00004395  00000-0  29417-3 0  9990,2 51744  53.2169 155.2226 0001889  50.3776  53.6168 15.08823806  1300,6917.93,95.439,541.102,538.488,0.0
51744.0,STARLINK-3452,PAYLOAD,2022-07-22 06:00:00,15.08810989,0.0002054,53.2167,153.7279,45.5344,70.0453,0.0021574,0.00034187,0.0,0 STARLINK-3452,1 51744U 22016AG  22203.25001157  .00034187  00000-0  21574-2 0  9996,2 51744  53.2167 153.7279 0002054  45.5344  70.0453 15.08810989 24382,6917.969,95.439,541.255,538.413,0.0
51744.0,STARLINK-3452,PAYLOAD,2022-07-22 22:00:00,15.0885593,0.0001886999999999,53.2166,150.7337,53.051,85.6991,8.1951e-05,1.017e-05,0.0,0 STARLINK-3452,1 51744U 22016AG  22203.91667824  .00001017  00000-0  81951-4 0  9991,2 51744  53.2166 150.7337 0001887  53.0510  85.6991 15.08855930  1306,6917.831999999999,95.437,541.002,538.391,0.0
51744.0,STARLINK-3452,PAYLOAD,2022-07-23 08:00:01,15.08839285,0.0002008,53.216,148.8648,45.7609,197.4997,-0.000187,-3.263e-05,0.0,0 STARLINK-3452,1 51744U 22016AG  22204.33334491 -.00003263  00000-0 -18700-3 0  9997,2 51744  53.2160 148.8648 0002008  45.7609 197.4997 15.08839285 24540,6917.8830000000025,95.438,541.137,538.3580000000002,0.0
51744.0,STARLINK-3452,PAYLOAD,2022-07-23 14:00:01,15.0883013,0.0001841999999999,53.2161,147.7411,49.3337,112.6893,-0.0001874,-3.269e-05,0.0,0 STARLINK-3452,1 51744U 22016AG  22204.58335648 -.00003269  00000-0 -18740-3 0  9999,2 51744  53.2161 147.7411 0001842  49.3337 112.6893 15.08830130  1303,6917.911,95.438,541.05,538.501,0.0
51744.0,STARLINK-3452,PAYLOAD,2022-07-23 22:00:00,15.08852951,0.0001844,53.2162,146.2448,52.8721,120.7049,-0.00043513,-7.209e-05,0.0,0 STARLINK-3452,1 51744U 22016AG  22204.91667824 -.00007209  00000-0 -43513-3 0  9994,2 51744  53.2162 146.2448 0001844  52.8721 120.7049 15.08852951  1304,6917.840999999999,95.437,540.981,538.43,0.0
51744.0,STARLINK-3452,PAYLOAD,2022-07-24 00:00:00,15.08864018,0.0001862,53.2161,145.8713,50.8348,215.6416,-0.0024548,-0.0003917,0.0,0 STARLINK-3452,1 51744U 22016AG  22205.00001157 -.00039170  00000-0 -24548-2 0  9994,2 51744  53.2161 145.8713 0001862  50.8348 215.6416 15.08864018 24647,6917.807,95.436,540.96,538.384,0.0
51744.0,STARLINK-3452,PAYLOAD,2022-07-24 14:00:01,15.088215300000002,0.0001803,53.216,143.252,48.8251,147.9369,0.00030519,4.57e-05,0.0,0 STARLINK-3452,1 51744U 22016AG  22205.58334491  .00004570  00000-0  30519-3 0  9997,2 51744  53.2160 143.2520 0001803  48.8251 147.9369 15.08821530  1303,6917.937,95.439,541.049,538.555,0.0
51744.0,STARLINK-3452,PAYLOAD,2022-07-24 22:00:00,15.08842542,0.0001859,53.2162,141.7559,52.2679,156.0627,-0.00071295,-0.00011618,0.0,0 STARLINK-3452,1 51744U 22016AG  22205.91667824 -.00011618  00000-0 -71295-3 0  9992,2 51744  53.2162 141.7559 0001859  52.2679 156.0627 15.08842542  1308,6917.873000000001,95.437,541.024,538.452,0.0
51744.0,STARLINK-3452,PAYLOAD,2022-07-25 14:00:01,15.08834487,0.0001895,53.2164,138.7629,50.2386,181.2745,0.0007421,0.0001154,0.0,0 STARLINK-3452,1 51744U 22016AG  22206.58334491  .00011540  00000-0  74210-3 0  9999,2 51744  53.2164 138.7629 0001895  50.2386 181.2745 15.08834487  1307,6917.897,95.438,541.073,538.451,0.0
51744.0,STARLINK-3452,PAYLOAD,2022-07-25 22:00:00,15.08859543,0.0001966999999999,53.2166,137.267,52.9017,190.1985,-0.00096493,-0.00015621,0.0,0 STARLINK-3452,1 51744U 22016AG  22206.91667824 -.00015621  00000-0 -96493-3 0  9998,2 51744  53.2166 137.2670 0001967  52.9017 190.1985 15.08859543  1304,6917.821,95.436,541.0459999999998,538.325,0.0
51744.0,STARLINK-3452,PAYLOAD,2022-07-26 14:00:01,15.08825145,0.0001905,53.2171,134.2739,49.8094,216.5139,0.00084922,0.00013248,0.0,0 STARLINK-3452,1 51744U 22016AG  22207.58334491  .00013248  00000-0  84922-3 0  9998,2 51744  53.2171 134.2739 0001905  49.8094 216.5139 15.08825145  1300,6917.926,95.438,541.109,538.4730000000002,0.0
51744.0,STARLINK-3452,PAYLOAD,2022-07-26 22:00:00,15.08852654,0.0001975,53.2173,132.7781,51.9873,225.9145,-0.0010834,-0.00017495,0.0,0 STARLINK-3452,1 51744U 22016AG  22207.91667824 -.00017495  00000-0 -10834-2 0  9994,2 51744  53.2173 132.7781 0001975  51.9873 225.9145 15.08852654  1304,6917.842,95.437,541.073,538.34,0.0
51744.0,STARLINK-3452,PAYLOAD,2022-07-27 06:00:02,15.08821101,0.0002128,53.2173,131.2831,46.96,242.6086,0.0030071,0.00047871,0.0,0 STARLINK-3452,1 51744U 22016AG  22208.25002315  .00047871  00000-0  30071-2 0  9994,2 51744  53.2173 131.2831 0002128  46.9600 242.6086 15.08821101 25137,6917.938,95.439,541.275,538.331,0.0
51744.0,STARLINK-3452,PAYLOAD,2022-07-27 14:00:01,15.08845024,0.000194,53.2178,129.7851,51.2486,249.8566,-0.00059588,-9.761e-05,0.0,0 STARLINK-3452,1 51744U 22016AG  22208.58334491 -.00009761  00000-0 -59588-3 0  9996,2 51744  53.2178 129.7851 0001940  51.2486 249.8566 15.08845024  1303,6917.865,95.437,541.072,538.388,0.0
51744.0,STARLINK-3452,PAYLOAD,2022-07-27 22:00:00,15.0884536,0.0001961,53.2179,128.2893,51.1782,261.5259,-0.0012537,-0.00020189,0.0,0 STARLINK-3452,1 51744U 22016AG  22208.91667824 -.00020189  00000-0 -12537-2 0  9991,2 51744  53.2179 128.2893 0001961  51.1782 261.5259 15.08845360  1308,6917.864000000001,95.437,541.086,538.372,0.0
51744.0,STARLINK-3452,PAYLOAD,2022-07-28 00:00:00,15.08840811,0.0002041,53.2178,127.9159,49.4725,356.1289,-0.0014156,-0.00022748,0.0,0 STARLINK-3452,1 51744U 22016AG  22209.00001157 -.00022748  00000-0 -14156-2 0  9995,2 51744  53.2178 127.9159 0002041  49.4725 356.1289 15.08840811 25255,6917.878000000002,95.438,541.155,538.331,0.0
51744.0,STARLINK-3452,PAYLOAD,2022-07-28 14:00:01,15.0882021,0.0001923,53.2181,125.2963,52.4847,283.4038,0.0023266,0.00036914,0.0,0 STARLINK-3452,1 51744U 22016AG  22209.58334491  .00036914  00000-0  23266-2 0  9998,2 51744  53.2181 125.2963 0001923  52.4847 283.4038 15.08820210  1305,6917.941,95.439,541.136,538.476,0.0
